NORAD_CAT_ID,OBJECT_NAME,OBJECT_TYPE,EPOCH,MEAN_MOTION,ECCENTRICITY,INCLINATION,RA_OF_ASC_NODE,ARG_OF_PERICENTER,MEAN_ANOMALY,BSTAR,MEAN_MOTION_DOT,MEAN_MOTION_DDOT,TLE_LINE0,TLE_LINE1,TLE_LINE2,SEMIMAJOR_AXIS,PERIOD,APOGEE,PERIGEE,DECAYED
52647.0,STARLINK-3846,PAYLOAD,2022-06-26 22:00:00,15.73202862,0.0002675,53.214,226.3705,14.332,222.2801,4.610899999999999e-06,2.5e-07,0.0,0 STARLINK-3846,1 52647U 22052BB  22177.91667824  .00000025  00000-0  46109-5 0  9999,2 52647  53.2140 226.3705 0002675  14.3320 222.2801 15.73202862  1306,6727.887,91.533,351.552,347.952,0.0
52647.0,STARLINK-3846,PAYLOAD,2022-06-27 12:00:00,15.73184126,0.0002904,53.2136,223.4858,11.2626,290.9578,-0.0003446,-0.00048685,0.0,0 STARLINK-3846,1 52647U 22052BB  22178.50001157 -.00048685  00000-0 -34460-3 0  9997,2 52647  53.2136 223.4858 0002904  11.2626 290.9578 15.73184126  7253,6727.94,91.534,351.759,347.852,0.0
52647.0,STARLINK-3846,PAYLOAD,2022-06-27 14:00:01,15.73155804,0.0002917,53.2132,223.0734,9.7154,44.7372,-5.3775e-06,-1.376e-05,0.0,0 STARLINK-3846,1 52647U 22052BB  22178.58334491 -.00001376  00000-0 -53775-5 0  9993,2 52647  53.2132 223.0734 0002917   9.7154  44.7372 15.73155804  1308,6728.021,91.536,351.849,347.9240000000001,0.0
52647.0,STARLINK-3846,PAYLOAD,2022-06-27 20:00:01,15.73152038,0.0002715,53.2131,221.8346,8.6595,22.5234,0.00013994,0.00019025,0.0,0 STARLINK-3846,1 52647U 22052BB  22178.83335648  .00019025  00000-0  13994-3 0  9991,2 52647  53.2131 221.8346 0002715   8.6595  22.5234 15.73152038  7308,6728.031999999997,91.536,351.724,348.07,0.0
52647.0,STARLINK-3846,PAYLOAD,2022-06-27 22:00:00,15.73136467,0.0002654,53.213,221.4219,8.2255,135.1158,0.00046505,0.00064982,0.0,0 STARLINK-3846,1 52647U 22052BB  22178.91667824  .00064982  00000-0  46505-3 0  9990,2 52647  53.2130 221.4219 0002654   8.2255 135.1158 15.73136467  1301,6728.076,91.537,351.727,348.156,0.0
52647.0,STARLINK-3846,PAYLOAD,2022-06-28 14:00:01,15.73161584,0.0002981,53.2131,218.1252,9.2864,311.8078,0.00049152,0.00068825,0.0,0 STARLINK-3846,1 52647U 22052BB  22179.58334491  .00068825  00000-0  49152-3 0  9996,2 52647  53.2131 218.1252 0002981   9.2864 311.8078 15.73161584  1304,6728.005,91.535,351.875,347.86400000000015,0.0
52647.0,STARLINK-3846,PAYLOAD,2022-06-28 22:00:00,15.73184934,0.0002756,53.2134,216.4734,11.1358,38.8832,0.00044411,0.00062137,0.0,0 STARLINK-3846,1 52647U 22052BB  22179.91667824  .00062137  00000-0  44411-3 0  9995,2 52647  53.2134 216.4734 0002756  11.1358  38.8832 15.73184934  1301,6727.938,91.534,351.657,347.949,0.0
52647.0,STARLINK-3846,PAYLOAD,2022-06-29 04:00:00,15.73231339,0.0002812,53.2135,215.2364,13.7239,12.9816,6.098e-05,7.956e-05,0.0,0 STARLINK-3846,1 52647U 22052BB  22180.16667824  .00007956  00000-0  60980-4 0  9992,2 52647  53.2135 215.2364 0002812  13.7239  12.9816 15.73231339  7513,6727.806,91.531,351.56300000000016,347.779,0.0
52647.0,STARLINK-3846,PAYLOAD,2022-06-29 14:00:01,15.73249871,0.0003055,53.2126,213.1761,10.9206,216.9946,-0.00019316,-0.00027708,0.0,0 STARLINK-3846,1 52647U 22052BB  22180.58334491 -.00027708  00000-0 -19316-3 0  9994,2 52647  53.2126 213.1761 0003055  10.9206 216.9946 15.73249871  1305,6727.753000000002,91.53,351.673,347.56300000000016,0.0
52647.0,STARLINK-3846,PAYLOAD,2022-06-29 20:00:01,15.7321904,0.0002863,53.2128,211.9371,10.2575,194.4021,-0.00015982,-0.00023014,0.0,0 STARLINK-3846,1 52647U 22052BB  22180.83334491 -.00023014  00000-0 -15982-3 0  9993,2 52647  53.2128 211.9371 0002863  10.2575 194.4021 15.73219040  7628,6727.840999999999,91.532,351.63199999999995,347.78,0.0
52647.0,STARLINK-3846,PAYLOAD,2022-06-29 22:00:00,15.73184188,0.0002776,53.2126,211.5244,9.8409,307.0649,0.00036238,0.00050515,0.0,0 STARLINK-3846,1 52647U 22052BB  22180.91667824  .00050515  00000-0  36238-3 0  9992,2 52647  53.2126 211.5244 0002776   9.8409 307.0649 15.73184188  1305,6727.94,91.534,351.673,347.93800000000016,0.0
52647.0,STARLINK-3846,PAYLOAD,2022-06-30 04:00:00,15.73227033,0.0002771,53.213,210.2876,10.8894,282.7046,4.5004e-05,5.706e-05,0.0,0 STARLINK-3846,1 52647U 22052BB  22181.16667824  .00005706  00000-0  45004-4 0  9994,2 52647  53.2130 210.2876 0002771  10.8894 282.7046 15.73227033  7675,6727.818,91.532,351.547,347.819,0.0
52647.0,STARLINK-3846,PAYLOAD,2022-06-30 14:00:01,15.73245565,0.0003058999999999,53.2127,208.2271,8.2976,126.4948,-0.00035679,-0.00050508,0.0,0 STARLINK-3846,1 52647U 22052BB  22181.58334491 -.00050508  00000-0 -35679-3 0  9999,2 52647  53.2127 208.2271 0003059   8.2976 126.4948 15.73245565  1308,6727.765,91.531,351.68800000000016,347.57199999999995,0.0
52647.0,STARLINK-3846,PAYLOAD,2022-06-30 22:00:00,15.73166624,0.0002848,53.2131,206.5752,6.9323,216.8385,0.00047634,0.00066676,0.0,0 STARLINK-3846,1 52647U 22052BB  22181.91667824  .00066676  00000-0  47634-3 0  9990,2 52647  53.2131 206.5752 0002848   6.9323 216.8385 15.73166624  1301,6727.99,91.535,351.771,347.939,0.0
52647.0,STARLINK-3846,PAYLOAD,2022-07-01 14:00:01,15.73231975,0.0003215,53.2126,203.2778,11.6291,30.0123,-0.00041797,-0.00058971,0.0,0 STARLINK-3846,1 52647U 22052BB  22182.58334491 -.00058971  00000-0 -41797-3 0  9990,2 52647  53.2126 203.2778 0003215  11.6291  30.0123 15.73231975  1301,6727.804,91.531,351.832,347.506,0.0
52647.0,STARLINK-3846,PAYLOAD,2022-07-01 22:00:00,15.73155319,0.0002929,53.2128,201.6263,15.7239,114.8613,0.00045638,0.00063804,0.0,0 STARLINK-3846,1 52647U 22052BB  22182.91667824  .00063804  00000-0  45638-3 0  9993,2 52647  53.2128 201.6263 0002929  15.7239 114.8613 15.73155319  1304,6728.023,91.536,351.858,347.917,0.0
52647.0,STARLINK-3846,PAYLOAD,2022-07-02 04:00:00,15.73212509,0.0002994,53.2132,200.39,17.2543,90.0017,-2.0584e-05,-3.513e-05,0.0,0 STARLINK-3846,1 52647U 22052BB  22183.16667824 -.00003513  00000-0 -20584-4 0  9998,2 52647  53.2132 200.3900 0002994  17.2543  90.0017 15.73212509  7999,6727.86,91.532,351.73900000000015,347.71,0.0
52647.0,STARLINK-3846,PAYLOAD,2022-07-02 14:00:01,15.73233071,0.0003207,53.2131,198.3291,14.8043,293.636,0.00021592,0.00029838,0.0,0 STARLINK-3846,1 52647U 22052BB  22183.58334491  .00029838  00000-0  21592-3 0  9990,2 52647  53.2131 198.3291 0003207  14.8043 293.6360 15.73233071  1301,6727.801,91.531,351.8230000000001,347.5080000000001,0.0
52647.0,STARLINK-3846,PAYLOAD,2022-07-02 22:00:00,15.73241307,0.0002926,53.2136,196.6772,15.3501,22.0977,-2.9714e-05,-4.799e-05,0.0,0 STARLINK-3846,1 52647U 22052BB  22183.91667824 -.00004799  00000-0 -29714-4 0  9992,2 52647  53.2136 196.6772 0002926  15.3501  22.0977 15.73241307  8107,6727.776999999999,91.531,351.611,347.6740000000001,0.0
52647.0,STARLINK-3846,PAYLOAD,2022-07-03 14:00:01,15.73253637,0.0003151,53.2133,193.3797,10.2062,205.1999,-0.00086312,-0.00120355,0.0,0 STARLINK-3846,1 52647U 22052BB  22184.58334491 -.00120355  00000-0 -86312-3 0  9990,2 52647  53.2133 193.3797 0003151  10.2062 205.1999 15.73253637  1304,6727.7419999999975,91.53,351.727,347.487,0.0
52647.0,STARLINK-3846,PAYLOAD,2022-07-03 20:00:01,15.73155799,0.0002958,53.2136,192.1409,9.9767,182.1436,-0.00043592,-0.00061258,0.0,0 STARLINK-3846,1 52647U 22052BB  22184.83334491 -.00061258  00000-0 -43592-3 0  9997,2 52647  53.2136 192.1409 0002958   9.9767 182.1436 15.73155799  8256,6728.021,91.536,351.876,347.896,0.0
52647.0,STARLINK-3846,PAYLOAD,2022-07-03 22:00:00,15.73119262,0.0002907,53.2135,191.7283,11.4072,292.9378,-7.2285e-06,-1.633e-05,0.0,0 STARLINK-3846,1 52647U 22052BB  22184.91667824 -.00001633  00000-0 -72285-5 0  9999,2 52647  53.2135 191.7283 0002907  11.4072 292.9378 15.73119262  1300,6728.125,91.538,351.946,348.035,0.0
52647.0,STARLINK-3846,PAYLOAD,2022-07-04 12:00:00,15.73109774,0.0003247,53.2137,188.8444,12.8775,356.9206,0.00046689,0.00065173,0.0,0 STARLINK-3846,1 52647U 22052BB  22185.50001157  .00065173  00000-0  46689-3 0  9990,2 52647  53.2137 188.8444 0003247  12.8775 356.9206 15.73109774  8351,6728.151999999999,91.538,352.202,347.833,0.0
52647.0,STARLINK-3846,PAYLOAD,2022-07-04 14:00:01,15.73141962,0.0003203,53.2138,188.4314,13.4507,108.5494,7.9651e-05,0.00010545,0.0,0 STARLINK-3846,1 52647U 22052BB  22185.58334491  .00010545  00000-0  79651-4 0  9997,2 52647  53.2138 188.4314 0003203  13.4507 108.5494 15.73141962  1309,6728.061,91.537,352.081,347.771,0.0
52647.0,STARLINK-3846,PAYLOAD,2022-07-04 22:00:00,15.73143223,0.0002985,53.2142,186.78,15.9524,194.9309,0.00057414,0.00080548,0.0,0 STARLINK-3846,1 52647U 22052BB  22185.91667824  .00080548  00000-0  57414-3 0  9995,2 52647  53.2142 186.7800 0002985  15.9524 194.9309 15.73143223  1303,6728.057,91.536,351.93,347.914,0.0
52647.0,STARLINK-3846,PAYLOAD,2022-07-05 12:00:00,15.73201365,0.0003308,53.214,183.8957,16.0903,260.3885,0.00044955,0.00062961,0.0,0 STARLINK-3846,1 52647U 22052BB  22186.50001157  .00062961  00000-0  44955-3 0  9997,2 52647  53.2140 183.8957 0003308  16.0903 260.3885 15.73201365  8514,6727.891,91.533,351.982,347.531,0.0
52647.0,STARLINK-3846,PAYLOAD,2022-07-05 14:00:01,15.73230794,0.0003267,53.2139,183.4827,16.5616,12.1467,0.00011547,0.00015638,0.0,0 STARLINK-3846,1 52647U 22052BB  22186.58334491  .00015638  00000-0  11547-3 0  9995,2 52647  53.2139 183.4827 0003267  16.5616  12.1467 15.73230794  1301,6727.807,91.531,351.87,347.474,0.0
52647.0,STARLINK-3846,PAYLOAD,2022-07-05 20:00:01,15.7321957,0.0003021,53.2141,182.2441,17.4554,347.9784,0.00030276,0.00042125,0.0,0 STARLINK-3846,1 52647U 22052BB  22186.83334491  .00042125  00000-0  30276-3 0  9994,2 52647  53.2141 182.2441 0003021  17.4554 347.9784 15.73219570  8567,6727.839,91.532,351.737,347.672,0.0
52647.0,STARLINK-3846,PAYLOAD,2022-07-05 22:00:00,15.73244129,0.0002982,53.2141,181.8315,18.3982,99.2712,-3.6276e-05,-5.722e-05,0.0,0 STARLINK-3846,1 52647U 22052BB  22186.91667824 -.00005722  00000-0 -36276-4 0  9993,2 52647  53.2141 181.8315 0002982  18.3982  99.2712 15.73244129  1303,6727.769,91.531,351.641,347.62800000000016,0.0
